0 DELTA 1 DEB
1 09568U 73086FW  13282.30389705  .00000722  00000-0  73063-2 0  3203
2 09568 101.4546 214.1768 0361363 192.2041 325.4335 12.04768508746497
0 DELTA 1 DEB
1 09568U 73086FW  13284.29638838  .00001002  00000-0  99995-2 0  3212
2 09568 101.4543 215.9351 0361230 188.4513 327.4136 12.04770261746732
0 DELTA 1 DEB
1 09568U 73086FW  13285.76193370  .00001160  00000-0  11524-1 0  3229
2 09568 101.4536 217.2277 0361244 185.7377 203.8561 12.04773548746919
0 DELTA 1 DEB
1 09568U 73086FW  13286.28957388  .00001150  00000-0  11419-1 0  3237
2 09568 101.4536 217.6934 0361322 184.7735 332.3542 12.04773184746976
0 DELTA 1 DEB
1 09568U 73086FW  13292.81869286  .00001885  00000-0  18482-1 0  3245
2 09568 101.4532 223.4539 0361602 172.6276 211.0794 12.04794241747762
0 DELTA 1 DEB
1 09568U 73086FW  13294.33725068  .00001882  00000-0  18448-1 0  3253
2 09568 101.4519 224.7934 0361722 169.8040 317.5815 12.04802028747949
0 DELTA 1 DEB
1 09568U 73086FW  13295.80868760  .00001728  00000-0  16963-1 0  3263
2 09568 101.4518 226.0917 0361970 167.0323 219.7659 12.04804923748129
